NORAD_CAT_ID,OBJECT_NAME,OBJECT_TYPE,EPOCH,MEAN_MOTION,ECCENTRICITY,INCLINATION,RA_OF_ASC_NODE,ARG_OF_PERICENTER,MEAN_ANOMALY,BSTAR,MEAN_MOTION_DOT,MEAN_MOTION_DDOT,TLE_LINE0,TLE_LINE1,TLE_LINE2,SEMIMAJOR_AXIS,PERIOD,APOGEE,PERIGEE,DECAYED
54195.0,STARLINK-5258,PAYLOAD,2024-03-25 20:47:15,15.08841074,0.0001335,53.2175,318.6793,145.7994,214.3084,-9.3809e-05,-1.781e-05,0.0,0 STARLINK-5258,1 54195U 22141AQ  24085.86615321 -.00001781  00000-0 -93809-4 0  9997,2 54195  53.2175 318.6793 0001335 145.7994 214.3084 15.08841074 78462,6917.877,95.437,540.666,538.819,0.0
54195.0,STARLINK-5258,PAYLOAD,2024-03-25 22:22:38,15.08839758,0.0001241,53.2175,318.3821,70.8125,289.3001,-2.8391e-06,-3.33e-06,0.0,0 STARLINK-5258,1 54195U 22141AQ  24085.93239450 -.00000333  00000-0 -28391-5 0  9997,2 54195  53.2175 318.3821 0001241  70.8125 289.3001 15.08839758 78244,6917.881,95.438,540.605,538.888,0.0
54195.0,STARLINK-5258,PAYLOAD,2024-03-26 07:54:56,15.08853695,0.0001306,53.2183,316.5991,140.3723,219.7365,4.5075e-05,4.3e-06,0.0,0 STARLINK-5258,1 54195U 22141AQ  24086.32982098  .00000430  00000-0  45075-4 0  9997,2 54195  53.2183 316.5991 0001306 140.3723 219.7365 15.08853695 78538,6917.839,95.437,540.607,538.8,0.0
54195.0,STARLINK-5258,PAYLOAD,2024-03-26 20:38:03,15.08827209,0.0001313,53.2194,314.2223,112.7256,247.3875,0.00017908,2.562e-05,0.0,0 STARLINK-5258,1 54195U 22141AQ  24086.85975929  .00002562  00000-0  17908-3 0  9991,2 54195  53.2194 314.2223 0001313 112.7256 247.3875 15.08827209 78619,6917.919,95.438,540.693,538.876,0.0
54195.0,STARLINK-5258,PAYLOAD,2024-03-26 22:13:26,15.08827975,0.0001085,53.2179,313.924,105.4537,254.6575,0.00020616,2.994e-05,0.0,0 STARLINK-5258,1 54195U 22141AQ  24086.92599849  .00002994  00000-0  20616-3 0  9991,2 54195  53.2179 313.9240 0001085 105.4537 254.6575 15.08827975 78397,6917.917,95.438,540.533,539.032,0.0
54195.0,STARLINK-5258,PAYLOAD,2024-03-27 07:45:44,15.08843234,9.4e-05,53.2178,312.1349,85.9596,274.1504,0.00028797,4.299e-05,0.0,0 STARLINK-5258,1 54195U 22141AQ  24087.32342834  .00004299  00000-0  28797-3 0  9994,2 54195  53.2178 312.1349 0000940  85.9596 274.1504 15.08843234 78680,6917.871,95.437,540.386,539.085,0.0
54195.0,STARLINK-5258,PAYLOAD,2024-03-27 20:28:50,15.08837426,0.0001059,53.217,309.7552,70.2583,289.8524,1.0822e-05,-1.16e-06,0.0,0 STARLINK-5258,1 54195U 22141AQ  24087.85336036 -.00000116  00000-0  10822-4 0  9995,2 54195  53.2170 309.7552 0001059  70.2583 289.8524 15.08837426 78765,6917.888,95.438,540.486,539.021,0.0
54195.0,STARLINK-5258,PAYLOAD,2024-03-27 22:04:13,15.08840566,0.000115,53.2183,309.4595,71.9105,288.2012,4.1391e-05,3.71e-06,0.0,0 STARLINK-5258,1 54195U 22141AQ  24087.91959797  .00000371  00000-0  41391-4 0  9994,2 54195  53.2183 309.4595 0001150  71.9105 288.2012 15.08840566 78543,6917.879,95.438,540.539,538.948,0.0
54195.0,STARLINK-5258,PAYLOAD,2024-03-28 07:36:30,15.08856949,9.48e-05,53.2176,307.6745,76.6769,283.4329,0.00012594,1.718e-05,0.0,0 STARLINK-5258,1 54195U 22141AQ  24088.31702266  .00001718  00000-0  12594-3 0  9994,2 54195  53.2176 307.6745 0000948  76.6769 283.4329 15.08856949 78836,6917.829,95.436,540.349,539.038,0.0
54195.0,STARLINK-5258,PAYLOAD,2024-03-28 21:55:00,15.08838258,0.0001153,53.219,304.9988,74.4804,285.6315,-7.4149e-05,-1.468e-05,0.0,0 STARLINK-5258,1 54195U 22141AQ  24088.91320059 -.00001468  00000-0 -74149-4 0  9995,2 54195  53.2190 304.9988 0001153  74.4804 285.6315 15.08838258 78692,6917.886,95.438,540.548,538.953,0.0
54195.0,STARLINK-5258,PAYLOAD,2024-03-28 23:30:23,15.08840189,0.0001239,53.2184,304.7002,69.3196,290.7928,-6.4704e-05,-1.317e-05,0.0,0 STARLINK-5258,1 54195U 22141AQ  24088.97943922 -.00001317  00000-0 -64704-4 0  9990,2 54195  53.2184 304.7002 0001239  69.3196 290.7928 15.08840189 78932,6917.88,95.438,540.602,538.888,0.0
54195.0,STARLINK-5258,PAYLOAD,2024-03-29 07:27:18,15.08846938,0.0001214,53.2192,303.2179,88.0614,272.0517,2.2858e-05,7.6e-07,0.0,0 STARLINK-5258,1 54195U 22141AQ  24089.31063249  .00000076  00000-0  22858-4 0  9997,2 54195  53.2192 303.2179 0001214  88.0614 272.0517 15.08846938 78986,6917.859,95.437,540.564,538.884,0.0
54195.0,STARLINK-5258,PAYLOAD,2024-03-29 13:48:51,15.08839725,0.0001823,53.218,302.0287,80.5872,279.5326,9.1838e-05,1.174e-05,0.0,0 STARLINK-5258,1 54195U 22141AQ  24089.57559718  .00001174  00000-0  91838-4 0  9990,2 54195  53.2180 302.0287 0001823  80.5872 279.5326 15.08839725 78794,6917.881,95.438,541.007,538.485,0.0
54195.0,STARLINK-5258,PAYLOAD,2024-03-29 21:45:47,15.08839734,0.0001133,53.2175,300.5442,77.3105,282.8014,2.1255e-05,5e-07,0.0,0 STARLINK-5258,1 54195U 22141AQ  24089.90679826  .00000050  00000-0  21255-4 0  9998,2 54195  53.2175 300.5442 0001133  77.3105 282.8014 15.08839734 78848,6917.881,95.438,540.53,538.962,0.0
54195.0,STARLINK-5258,PAYLOAD,2024-03-30 07:18:05,15.08848785,0.0001087,53.2186,298.7559,68.6557,291.4551,0.00011157,1.489e-05,0.0,0 STARLINK-5258,1 54195U 22141AQ  24090.30422836  .00001489  00000-0  11157-3 0  9997,2 54195  53.2186 298.7559 0001087  68.6557 291.4551 15.08848785 79130,6917.854,95.437,540.471,538.967,0.0
54195.0,STARLINK-5258,PAYLOAD,2024-03-30 20:01:11,15.08832833,0.0001084,53.2204,296.3791,77.2493,282.862,9.3631e-05,1.202e-05,0.0,0 STARLINK-5258,1 54195U 22141AQ  24090.83415897  .00001202  00000-0  93631-4 0  9995,2 54195  53.2204 296.3791 0001084  77.2493 282.8620 15.08832833 79212,6917.902,95.438,540.517,539.017,0.0
54195.0,STARLINK-5258,PAYLOAD,2024-03-31 07:08:52,15.08844821,0.0001308,53.2197,294.2963,80.9127,279.2013,7.4619e-05,9e-06,0.0,0 STARLINK-5258,1 54195U 22141AQ  24091.29783213  .00000900  00000-0  74619-4 0  9995,2 54195  53.2197 294.2963 0001308  80.9127 279.2013 15.08844821 79288,6917.866,95.437,540.636,538.826,0.0
54195.0,STARLINK-5258,PAYLOAD,2024-03-31 19:51:58,15.0882766,7.09e-05,53.2203,291.9155,101.1978,258.9094,0.00025195,3.723e-05,0.0,0 STARLINK-5258,1 54195U 22141AQ  24091.82775704  .00003723  00000-0  25195-3 0  9990,2 54195  53.2203 291.9155 0000709 101.1978 258.9094 15.08827660 79361,6917.918,95.438,540.274,539.293,0.0
54195.0,STARLINK-5258,PAYLOAD,2024-03-31 23:02:44,15.08839838,0.0001032,53.2202,291.3198,116.7128,243.397,8.7486e-05,1.105e-05,0.0,0 STARLINK-5258,1 54195U 22141AQ  24091.96023325  .00001105  00000-0  87486-4 0  9994,2 54195  53.2202 291.3198 0001032 116.7128 243.3970 15.08839838 79383,6917.881,95.438,540.46,539.032,0.0
54195.0,STARLINK-5258,PAYLOAD,2024-04-01 13:21:12,15.08832759,0.0001448,53.2195,288.6433,95.2725,264.8432,0.00014934,2.089e-05,0.0,0 STARLINK-5258,1 54195U 22141AQ  24092.55639557  .00002089  00000-0  14934-3 0  9999,2 54195  53.2195 288.6433 0001448  95.2725 264.8432 15.08832759 79241,6917.903,95.438,540.769,538.766,0.0
54195.0,STARLINK-5258,PAYLOAD,2024-04-01 22:53:31,15.0884545,0.0001451,53.2185,286.8599,94.5032,265.6126,-6.0181e-05,-1.246e-05,0.0,0 STARLINK-5258,1 54195U 22141AQ  24092.95383378 -.00001246  00000-0 -60181-4 0  9992,2 54195  53.2185 286.8599 0001451  94.5032 265.6126 15.08845450 79308,6917.864,95.437,540.733,538.725,0.0
54195.0,STARLINK-5258,PAYLOAD,2024-04-02 19:33:32,15.08826202,0.0001121,53.2177,282.9939,89.6384,270.4736,0.00015727,2.215e-05,0.0,0 STARLINK-5258,1 54195U 22141AQ  24093.81496188  .00002215  00000-0  15727-3 0  9992,2 54195  53.2177 282.9939 0001121  89.6384 270.4736 15.08826202 79667,6917.923,95.438,540.563,539.012,0.0
54195.0,STARLINK-5258,PAYLOAD,2024-04-03 05:05:51,15.0884014,0.0001073,53.2175,281.2095,83.4842,276.6272,3.8635e-05,3.27e-06,0.0,0 STARLINK-5258,1 54195U 22141AQ  24094.21239613  .00000327  00000-0  38635-4 0  9991,2 54195  53.2175 281.2095 0001073  83.4842 276.6272 15.08840140 79724,6917.88,95.438,540.487,539.003,0.0
54195.0,STARLINK-5258,PAYLOAD,2024-04-03 13:02:47,15.0883322,0.0001156,53.2182,279.7264,101.7241,258.3881,5.3081e-05,5.57e-06,0.0,0 STARLINK-5258,1 54195U 22141AQ  24094.54360047  .00000557  00000-0  53081-4 0  9990,2 54195  53.2182 279.7264 0001156 101.7241 258.3881 15.08833220 79545,6917.901,95.438,540.566,538.966,0.0
54195.0,STARLINK-5258,PAYLOAD,2024-04-03 19:24:19,15.08836124,0.0001125,53.2181,278.5373,99.9495,260.1625,6.1151e-05,6.85e-06,0.0,0 STARLINK-5258,1 54195U 22141AQ  24094.80855941  .00000685  00000-0  61151-4 0  9990,2 54195  53.2181 278.5373 0001125  99.9495 260.1625 15.08836124 79584,6917.892,95.438,540.535,538.979,0.0
54195.0,STARLINK-5258,PAYLOAD,2024-04-04 04:56:37,15.08843962,0.0001179,53.2185,276.7525,96.4558,263.6568,8.3883e-05,1.048e-05,0.0,0 STARLINK-5258,1 54195U 22141AQ  24095.20599392  .00001048  00000-0  83883-4 0  9990,2 54195  53.2185 276.7525 0001179  96.4558 263.6568 15.08843962 79647,6917.868,95.437,540.549,538.918,0.0
54195.0,STARLINK-5258,PAYLOAD,2024-04-04 20:50:29,15.08836409,0.0001227,53.2187,273.7787,96.3679,263.7453,4.2426e-05,3.87e-06,0.0,0 STARLINK-5258,1 54195U 22141AQ  24095.86840155  .00000387  00000-0  42426-4 0  9991,2 54195  53.2187 273.7787 0001227  96.3679 263.7453 15.08836409 79971,6917.891,95.438,540.605,538.908,0.0
54195.0,STARLINK-5258,PAYLOAD,2024-04-05 11:08:57,15.08842191,0.000118,53.218,271.1032,95.0443,265.0684,7.5856e-05,9.2e-06,0.0,0 STARLINK-5258,1 54195U 22141AQ  24096.46455656  .00000920  00000-0  75856-4 0  9992,2 54195  53.2180 271.1032 0001180  95.0443 265.0684 15.08842191 79833,6917.874,95.437,540.555,538.922,0.0
54195.0,STARLINK-5258,PAYLOAD,2024-04-05 19:05:53,15.08841232,0.0001182,53.2182,269.6154,89.2162,270.8965,4.1335e-05,3.7e-06,0.0,0 STARLINK-5258,1 54195U 22141AQ  24096.79575850  .00000370  00000-0  41335-4 0  9991,2 54195  53.2182 269.6154 0001182  89.2162 270.8965 15.08841232 79883,6917.877,95.437,540.559,538.924,0.0
54195.0,STARLINK-5258,PAYLOAD,2024-04-06 10:59:44,15.08840541,0.0001266,53.2187,266.6418,83.1556,276.958,7.954e-05,9.78e-06,0.0,0 STARLINK-5258,1 54195U 22141AQ  24097.45815695  .00000978  00000-0  79540-4 0  9992,2 54195  53.2187 266.6418 0001266  83.1556 276.9580 15.08840541 80212,6917.879,95.438,540.62,538.868,0.0
